[{"OBJECT_NAME":"STARLINK-3611","OBJECT_ID":"2022-017M","EPOCH":"2026-03-09T22:09:57.337056","MEAN_MOTION":15.08840163,"ECCENTRICITY":0.000154,"INCLINATION":53.2195,"RA_OF_ASC_NODE":338.122,"ARG_OF_PERICENTER":104.4617,"MEAN_ANOMALY":255.6546,"EPHEMERIS_TYPE":0,"CLASSIFICATION_TYPE":"U","NORAD_CAT_ID":51779,"ELEMENT_SET_NO":999,"REV_AT_EPOCH":22260,"BSTAR":-1.240361e-6,"MEAN_MOTION_DOT":-3.08e-6,"MEAN_MOTION_DDOT":0},{"OBJECT_NAME":"CZ-6A R\/B","OBJECT_ID":"2026-006B","EPOCH":"2026-03-09T16:33:28.241280","MEAN_MOTION":14.62408141,"ECCENTRICITY":0.02011935,"INCLINATION":142.0446,"RA_OF_ASC_NODE":130.9033,"ARG_OF_PERICENTER":126.5877,"MEAN_ANOMALY":235.3545,"EPHEMERIS_TYPE":0,"CLASSIFICATION_TYPE":"U","NORAD_CAT_ID":67434,"ELEMENT_SET_NO":999,"REV_AT_EPOCH":807,"BSTAR":0.00025316121,"MEAN_MOTION_DOT":2.077e-5,"MEAN_MOTION_DDOT":0}]
